TEVEL2-9                
1 63237U 25052AD  26187.16133809  .00017138  00000+0  54690-3 0  9996
2 63237  97.3914  82.4548 0008221  81.8124 278.4050 15.32531668 72931
TEVEL2-7                
1 63238U 25052AE  26186.22636433  .00026511  00000+0  85258-3 0  9993
2 63238  97.3915  81.4293 0008312  84.3933 275.8257 15.32192740 72783
TEVEL2-8                
1 63239U 25052AF  26186.23479095  .00026777  00000+0  86147-3 0  9996
2 63239  97.3912  81.4140 0008320  84.8446 275.3745 15.32178382 72788
INNOSAT 16 (RS92S7)     
1 64878U 25155C   26187.15494387  .00006084  00000+0  24138-3 0  9994
2 64878  97.4577 154.2253 0012306 115.3643 244.8871 15.25670052 83560
GEOSCAN 6 (RS92S6)      
1 64879U 25155D   26187.14403027  .00010499  00000+0  35765-3 0  9998
2 64879  97.4568 155.7743 0009931 107.4952 252.7374 15.30531572 83662
GEOSCAN 1 (RS92S1)      
1 64880U 25155E   26187.13887345  .00011503  00000+0  38394-3 0  9996
2 64880  97.4565 155.9340 0009872 107.5613 252.6707 15.31167054 83676
239ALFEROV (RS61S)      
1 64881U 25155F   26187.14598231  .00015098  00000+0  46783-3 0  9995
2 64881  97.4565 156.5679 0009564 106.7912 253.4380 15.33490077 83717
GEOSCAN 2 (RS92S2)      
1 64890U 25155Q   26187.12927469  .00011673  00000+0  38653-3 0  9994
2 64890  97.4564 156.0843 0009267  97.2549 262.9746 15.31425504 83682
GEOSCAN 5 (RS92S5)      
1 64891U 25155R   26187.13111330  .00015159  00000+0  46526-3 0  9999
2 64891  97.4557 156.6976 0008547 110.5410 249.6750 15.33800743 83720
GEOSCAN 4 (RS92S4)      
1 64892U 25155S   26187.17858459  .00013665  00000+0  41760-3 0  9999
2 64892  97.4561 156.7995 0008541 110.4195 249.7966 15.33964038 83730
GEOSCAN 3 (RS92S3)      
1 64893U 25155T   26187.15410123  .00018721  00000+0  53375-3 0  9993
2 64893  97.4549 157.2607 0008515 110.5656 249.6502 15.36081903 83769
INNOSAT 3 (RS92S0)      
1 64894U 25155U   26187.16591343  .00040935  00000+0  85689-3 0  9994
2 64894  97.4494 159.1350 0008313 110.7985 249.4155 15.45303145 83899
KNACKSAT-2              
1 67683U 98067XZ  26186.66238610  .00061191  00000+0  69546-3 0  9995
2 67683  51.6260 201.4339 0008278 294.1874  65.8254 15.61685266 23162
